[
    {
        "OBJECT_NAME": "BEIDOU-3 M11",
        "OBJECT_ID": "2018-067B",
        "EPOCH": "2026-07-22T11:36:01.315584",
        "MEAN_MOTION": 1.86227144,
        "ECCENTRICITY": 0.00047117,
        "INCLINATION": 54.179,
        "RA_OF_ASC_NODE": 179.8069,
        "ARG_OF_PERICENTER": 13.8636,
        "MEAN_ANOMALY": 346.1302,
        "EPHEMERIS_TYPE": 0,
        "CLASSIFICATION_TYPE": "U",
        "NORAD_CAT_ID": 43603,
        "ELEMENT_SET_NO": 999,
        "REV_AT_EPOCH": 5380,
        "BSTAR": 0,
        "MEAN_MOTION_DOT": 7.4e-07,
        "MEAN_MOTION_DDOT": 0
    },
    {
        "OBJECT_NAME": "BEIDOU-3 M13",
        "OBJECT_ID": "2018-072A",
        "EPOCH": "2026-07-20T19:51:02.488032",
        "MEAN_MOTION": 1.86231285,
        "ECCENTRICITY": 0.00056715,
        "INCLINATION": 56.654,
        "RA_OF_ASC_NODE": 61.5496,
        "ARG_OF_PERICENTER": 334.9185,
        "MEAN_ANOMALY": 25.1158,
        "EPHEMERIS_TYPE": 0,
        "CLASSIFICATION_TYPE": "U",
        "NORAD_CAT_ID": 43622,
        "ELEMENT_SET_NO": 999,
        "REV_AT_EPOCH": 5328,
        "BSTAR": 0,
        "MEAN_MOTION_DOT": -8e-07,
        "MEAN_MOTION_DDOT": 0
    },
    {
        "OBJECT_NAME": "BEIDOU-3 M14",
        "OBJECT_ID": "2018-072B",
        "EPOCH": "2026-07-21T05:30:28.658304",
        "MEAN_MOTION": 1.86231111,
        "ECCENTRICITY": 0.00054316,
        "INCLINATION": 56.6565,
        "RA_OF_ASC_NODE": 61.531,
        "ARG_OF_PERICENTER": 13.4516,
        "MEAN_ANOMALY": 346.6246,
        "EPHEMERIS_TYPE": 0,
        "CLASSIFICATION_TYPE": "U",
        "NORAD_CAT_ID": 43623,
        "ELEMENT_SET_NO": 999,
        "REV_AT_EPOCH": 5328,
        "BSTAR": 0,
        "MEAN_MOTION_DOT": -8e-07,
        "MEAN_MOTION_DDOT": 0
    },
    {
        "OBJECT_NAME": "BEIDOU-3 M16",
        "OBJECT_ID": "2018-078A",
        "EPOCH": "2026-07-20T20:20:15.467136",
        "MEAN_MOTION": 1.86232384,
        "ECCENTRICITY": 0.00065166,
        "INCLINATION": 54.0571,
        "RA_OF_ASC_NODE": 298.805,
        "ARG_OF_PERICENTER": 39.3061,
        "MEAN_ANOMALY": 320.7783,
        "EPHEMERIS_TYPE": 0,
        "CLASSIFICATION_TYPE": "U",
        "NORAD_CAT_ID": 43647,
        "ELEMENT_SET_NO": 999,
        "REV_AT_EPOCH": 5278,
        "BSTAR": 0,
        "MEAN_MOTION_DOT": -9.8e-07,
        "MEAN_MOTION_DDOT": 0
    },
    {
        "OBJECT_NAME": "BEIDOU-3 M15",
        "OBJECT_ID": "2018-078B",
        "EPOCH": "2026-07-20T23:26:23.627040",
        "MEAN_MOTION": 1.86232487,
        "ECCENTRICITY": 0.00033878,
        "INCLINATION": 54.0528,
        "RA_OF_ASC_NODE": 298.8006,
        "ARG_OF_PERICENTER": 57.1042,
        "MEAN_ANOMALY": 302.9655,
        "EPHEMERIS_TYPE": 0,
        "CLASSIFICATION_TYPE": "U",
        "NORAD_CAT_ID": 43648,
        "ELEMENT_SET_NO": 999,
        "REV_AT_EPOCH": 5280,
        "BSTAR": 0,
        "MEAN_MOTION_DOT": -9.8e-07,
        "MEAN_MOTION_DDOT": 0
    },
    {
        "OBJECT_NAME": "BEIDOU-3 G1",
        "OBJECT_ID": "2018-085A",
        "EPOCH": "2026-07-22T13:58:08.340672",
        "MEAN_MOTION": 1.00272967,
        "ECCENTRICITY": 0.00083134,
        "INCLINATION": 2.956,
        "RA_OF_ASC_NODE": 96.4144,
        "ARG_OF_PERICENTER": 357.3143,
        "MEAN_ANOMALY": 216.1265,
        "EPHEMERIS_TYPE": 0,
        "CLASSIFICATION_TYPE": "U",
        "NORAD_CAT_ID": 43683,
        "ELEMENT_SET_NO": 999,
        "REV_AT_EPOCH": 2841,
        "BSTAR": 0,
        "MEAN_MOTION_DOT": -1.07e-06,
        "MEAN_MOTION_DDOT": 0
    },
    {
        "OBJECT_NAME": "BEIDOU-3 M17",
        "OBJECT_ID": "2018-093A",
        "EPOCH": "2026-07-22T02:47:26.767392",
        "MEAN_MOTION": 1.86228496,
        "ECCENTRICITY": 0.00099998,
        "INCLINATION": 54.1702,
        "RA_OF_ASC_NODE": 181.1114,
        "ARG_OF_PERICENTER": 295.2679,
        "MEAN_ANOMALY": 0.0935,
        "EPHEMERIS_TYPE": 0,
        "CLASSIFICATION_TYPE": "U",
        "NORAD_CAT_ID": 43706,
        "ELEMENT_SET_NO": 999,
        "REV_AT_EPOCH": 5218,
        "BSTAR": 0,
        "MEAN_MOTION_DOT": 7.8e-07,
        "MEAN_MOTION_DDOT": 0
    },
    {
        "OBJECT_NAME": "BEIDOU-3 M18",
        "OBJECT_ID": "2018-093B",
        "EPOCH": "2026-07-21T00:03:23.021856",
        "MEAN_MOTION": 1.86226686,
        "ECCENTRICITY": 0.00081178,
        "INCLINATION": 54.171,
        "RA_OF_ASC_NODE": 181.1414,
        "ARG_OF_PERICENTER": 324.4293,
        "MEAN_ANOMALY": 35.4967,
        "EPHEMERIS_TYPE": 0,
        "CLASSIFICATION_TYPE": "U",
        "NORAD_CAT_ID": 43707,
        "ELEMENT_SET_NO": 999,
        "REV_AT_EPOCH": 5216,
        "BSTAR": 0,
        "MEAN_MOTION_DOT": 7.8e-07,
        "MEAN_MOTION_DDOT": 0
    },
    {
        "OBJECT_NAME": "BEIDOU-3 IGSO-1",
        "OBJECT_ID": "2019-023A",
        "EPOCH": "2026-07-22T10:37:38.665632",
        "MEAN_MOTION": 1.00281841,
        "ECCENTRICITY": 0.0026194,
        "INCLINATION": 58.7457,
        "RA_OF_ASC_NODE": 37.2857,
        "ARG_OF_PERICENTER": 223.4912,
        "MEAN_ANOMALY": 318.1363,
        "EPHEMERIS_TYPE": 0,
        "CLASSIFICATION_TYPE": "U",
        "NORAD_CAT_ID": 44204,
        "ELEMENT_SET_NO": 999,
        "REV_AT_EPOCH": 756,
        "BSTAR": 0,
        "MEAN_MOTION_DOT": -2.08e-06,
        "MEAN_MOTION_DDOT": 0
    },
    {
        "OBJECT_NAME": "BEIDOU-2 G8",
        "OBJECT_ID": "2019-027A",
        "EPOCH": "2026-07-22T15:25:46.350048",
        "MEAN_MOTION": 1.0027018,
        "ECCENTRICITY": 0.00095803,
        "INCLINATION": 1.746,
        "RA_OF_ASC_NODE": 74.5118,
        "ARG_OF_PERICENTER": 284.0006,
        "MEAN_ANOMALY": 317.8242,
        "EPHEMERIS_TYPE": 0,
        "CLASSIFICATION_TYPE": "U",
        "NORAD_CAT_ID": 44231,
        "ELEMENT_SET_NO": 999,
        "REV_AT_EPOCH": 2643,
        "BSTAR": 0,
        "MEAN_MOTION_DOT": -2.45e-06,
        "MEAN_MOTION_DDOT": 0
    },
    {
        "OBJECT_NAME": "BEIDOU-3 IGSO-2",
        "OBJECT_ID": "2019-035A",
        "EPOCH": "2026-07-21T18:25:21.211104",
        "MEAN_MOTION": 1.00289985,
        "ECCENTRICITY": 0.00390505,
        "INCLINATION": 55.2573,
        "RA_OF_ASC_NODE": 158.5594,
        "ARG_OF_PERICENTER": 212.87,
        "MEAN_ANOMALY": 322.7485,
        "EPHEMERIS_TYPE": 0,
        "CLASSIFICATION_TYPE": "U",
        "NORAD_CAT_ID": 44337,
        "ELEMENT_SET_NO": 999,
        "REV_AT_EPOCH": 2601,
        "BSTAR": 0,
        "MEAN_MOTION_DOT": -1.06e-06,
        "MEAN_MOTION_DDOT": 0
    },
    {
        "OBJECT_NAME": "BEIDOU-3 M24",
        "OBJECT_ID": "2019-061A",
        "EPOCH": "2026-07-21T01:41:33.938880",
        "MEAN_MOTION": 1.8622927,
        "ECCENTRICITY": 0.00087106,
        "INCLINATION": 54.3973,
        "RA_OF_ASC_NODE": 181.585,
        "ARG_OF_PERICENTER": 0.1669,
        "MEAN_ANOMALY": 359.8142,
        "EPHEMERIS_TYPE": 0,
        "CLASSIFICATION_TYPE": "U",
        "NORAD_CAT_ID": 44542,
        "ELEMENT_SET_NO": 999,
        "REV_AT_EPOCH": 4642,
        "BSTAR": 0,
        "MEAN_MOTION_DOT": 7.9e-07,
        "MEAN_MOTION_DDOT": 0
    },
    {
        "OBJECT_NAME": "BEIDOU-3 M23",
        "OBJECT_ID": "2019-061B",
        "EPOCH": "2026-07-21T08:51:16.453152",
        "MEAN_MOTION": 1.86227442,
        "ECCENTRICITY": 0.0006008,
        "INCLINATION": 54.3962,
        "RA_OF_ASC_NODE": 181.5433,
        "ARG_OF_PERICENTER": 341.8135,
        "MEAN_ANOMALY": 129.6135,
        "EPHEMERIS_TYPE": 0,
        "CLASSIFICATION_TYPE": "U",
        "NORAD_CAT_ID": 44543,
        "ELEMENT_SET_NO": 999,
        "REV_AT_EPOCH": 4643,
        "BSTAR": 0,
        "MEAN_MOTION_DOT": 7.9e-07,
        "MEAN_MOTION_DDOT": 0
    }
]
